[Satellite]
VERSION=1.1
NAME=KALPANA-1 (METSAT 1)
NICKNAME=KALPANA-1 (METSAT 1)
TLE1=1 27525U 02043A   18020.61402963 -.00000071  00000-0  00000+0 0  9990
TLE2=2 27525   6.7054  53.8712 0016295 239.4247 120.4825  1.00271528 56262
